$$SOE
2461295.500000000, A.D. 2026-Sep-12 00:00:00.0000, 3.381697498339614E+08, -9.093741581644791E+07, -2.116129999613314E+07,
2461302.500000000, A.D. 2026-Sep-19 00:00:00.0000, 3.400386450030410E+08, -7.920861430936840E+07, -1.999303603521992E+07,
2461309.500000000, A.D. 2026-Sep-26 00:00:00.0000, 3.415216299705520E+08, -6.738996265252405E+07, -1.880208302187386E+07,
2461316.500000000, A.D. 2026-Oct-03 00:00:00.0000, 3.426133419176788E+08, -5.549415014633550E+07, -1.758959007440865E+07,
2461323.500000000, A.D. 2026-Oct-10 00:00:00.0000, 3.433088246531475E+08, -4.353420783908741E+07, -1.635675617364161E+07,
2461330.500000000, A.D. 2026-Oct-17 00:00:00.0000, 3.436035520412294E+08, -3.152349791934212E+07, -1.510482985070054E+07,
2461337.500000000, A.D. 2026-Oct-24 00:00:00.0000, 3.434934515207859E+08, -1.947570155937131E+07, -1.383510871490385E+07,
2461344.500000000, A.D. 2026-Oct-31 00:00:00.0000, 3.429749277114620E+08, -7.404805211181919E+06, -1.254893882628451E+07,
2461351.500000000, A.D. 2026-Nov-07 00:00:00.0000, 3.420448863298354E+08, 4.674914770917348E+06, -1.124771392777051E+07,
2461358.500000000, A.D. 2026-Nov-14 00:00:00.0000, 3.407007584814454E+08, 1.674891011371883E+07, -9.932874472703047E+06,
2461365.500000000, A.D. 2026-Nov-21 00:00:00.0000, 3.389405233749887E+08, 2.880238193766577E+07, -8.605906215575138E+06,
2461372.500000000, A.D. 2026-Nov-28 00:00:00.0000, 3.367627283154672E+08, 4.082030241690967E+07, -7.268338511304326E+06,
2461379.500000000, A.D. 2026-Dec-05 00:00:00.0000, 3.341665094328877E+08, 5.278743614254856E+07, -5.921742701266283E+06,
2461386.500000000, A.D. 2026-Dec-12 00:00:00.0000, 3.311516131375679E+08, 6.468836430424357E+07, -4.567730340537019E+06,
2461393.500000000, A.D. 2026-Dec-19 00:00:00.0000, 3.277184162403532E+08, 7.650751168736458E+07, -3.207951087589763E+06,
2461400.500000000, A.D. 2026-Dec-26 00:00:00.0000, 3.238679444184145E+08, 8.822917559075674E+07, -1.844090310896009E+06,
2461407.500000000, A.D. 2027-Jan-02 00:00:00.0000, 3.196018891219497E+08, 9.983755642936707E+07, -4.778664517206326E+05,
2461414.500000000, A.D. 2027-Jan-09 00:00:00.0000, 3.149226228561878E+08, 1.113167899787072E+08, 8.889718475081697E+05,
2461421.500000000, A.D. 2027-Jan-16 00:00:00.0000, 3.098332126915368E+08, 1.226509811879280E+08, 2.254648844398119E+06,
2461428.500000000, A.D. 2027-Jan-23 00:00:00.0000, 3.043374318680132E+08, 1.338242394207263E+08, 3.617365015442289E+06,
2461435.500000000, A.D. 2027-Jan-30 00:00:00.0000, 2.984397695078417E+08, 1.448207149554846E+08, 4.975300564673699E+06,
2461442.500000000, A.D. 2027-Feb-06 00:00:00.0000, 2.921454386946589E+08, 1.556246369413786E+08, 6.326619101504505E+06,
2461449.500000000, A.D. 2027-Feb-13 00:00:00.0000, 2.854603822950864E+08, 1.662203538641686E+08, 7.669471617258392E+06,
2461456.500000000, A.D. 2027-Feb-20 00:00:00.0000, 2.783912740055257E+08, 1.765923755547915E+08, 9.002000898935400E+06,
2461463.500000000, A.D. 2027-Feb-27 00:00:00.0000, 2.709455158978640E+08, 1.867254133361691E+08, 1.032234597406089E+07,
2461470.500000000, A.D. 2027-Mar-06 00:00:00.0000, 2.631312353731242E+08, 1.966044200113981E+08, 1.162864644741450E+07,
2461477.500000000, A.D. 2027-Mar-13 00:00:00.0000, 2.549572798233464E+08, 2.062146315092951E+08, 1.291904702223757E+07,
2461484.500000000, A.D. 2027-Mar-20 00:00:00.0000, 2.464332077975442E+08, 2.155416091100409E+08, 1.419170221812969E+07,
2461491.500000000, A.D. 2027-Mar-27 00:00:00.0000, 2.375692768250700E+08, 2.245712814482277E+08, 1.544478119714381E+07,
2461498.500000000, A.D. 2027-Apr-03 00:00:00.0000, 2.283764280758712E+08, 2.332899859826567E+08, 1.667647264865015E+07,
2461505.500000000, A.D. 2027-Apr-10 00:00:00.0000, 2.188662679217368E+08, 2.416845096870732E+08, 1.788498970080723E+07,
2461512.500000000, A.D. 2027-Apr-17 00:00:00.0000, 2.090510464508289E+08, 2.497421286759827E+08, 1.906857482581770E+07,
2461519.500000000, A.D. 2027-Apr-24 00:00:00.0000, 1.989436330730141E+08, 2.574506464328117E+08, 2.022550469617954E+07,
2461526.500000000, A.D. 2027-May-01 00:00:00.0000, 1.885574896030494E+08, 2.647984304029845E+08, 2.135409493593702E+07,
2461533.500000000, A.D. 2027-May-08 00:00:00.0000, 1.779066412476666E+08, 2.717744474426979E+08, 2.245270476885797E+07,
2461540.500000000, A.D. 2027-May-15 00:00:00.0000, 1.670056441441310E+08, 2.783682988216199E+08, 2.351974174660063E+07,
2461547.500000000, A.D. 2027-May-22 00:00:00.0000, 1.558695480455060E+08, 2.845702519474727E+08, 2.455366645758139E+07,
2461554.500000000, A.D. 2027-May-29 00:00:00.0000, 1.445138577023643E+08, 2.903712671389817E+08, 2.555299676141146E+07,
2461561.500000000, A.D. 2027-Jun-05 00:00:00.0000, 1.329544940515543E+08, 2.957630223852357E+08, 2.651631169589834E+07,
2461568.500000000, A.D. 2027-Jun-12 00:00:00.0000, 1.212077534411999E+08, 3.007379363447868E+08, 2.744225524926360E+07,
2461575.500000000, A.D. 2027-Jun-19 00:00:00.0000, 1.092902648150461E+08, 3.052891885008292E+08, 2.832953992777690E+07,
2461582.500000000, A.D. 2027-Jun-26 00:00:00.0000, 9.721894540812325E+07, 3.094107360896213E+08, 2.917695005028440E+07,
2461589.500000000, A.D. 2027-Jul-03 00:00:00.0000, 8.501095537093200E+07, 3.130973277126836E+08, 2.998334473811309E+07,
2461596.500000000, A.D. 2027-Jul-10 00:00:00.0000, 7.268365164888637E+07, 3.163445135671794E+08, 3.074766057890619E+07,
2461603.500000000, A.D. 2027-Jul-17 00:00:00.0000, 6.025454144054969E+07, 3.191486522096031E+08, 3.146891394162159E+07,
2461610.500000000, A.D. 2027-Jul-24 00:00:00.0000, 4.774123567310567E+07, 3.215069137809545E+08, 3.214620291183268E+07,
2461617.500000000, A.D. 2027-Jul-31 00:00:00.0000, 3.516140318692121E+07, 3.234172799617850E+08, 3.277870882371369E+07,
2461624.500000000, A.D. 2027-Aug-07 00:00:00.0000, 2.253272571168021E+07, 3.248785418793579E+08, 3.336569750101870E+07,
2461631.500000000, A.D. 2027-Aug-14 00:00:00.0000, 9.872851617567761E+06, 3.258902958035655E+08, 3.390652039828207E+07,
2461638.500000000, A.D. 2027-Aug-21 00:00:00.0000, -2.800650675592731E+06, 3.264529333644047E+08, 3.440061531190208E+07,
2461645.500000000, A.D. 2027-Aug-28 00:00:00.0000, -1.547033596090031E+07, 3.265676276275911E+08, 3.484750645092738E+07,
2461652.500000000, A.D. 2027-Sep-04 00:00:00.0000, -2.811892312840384E+07, 3.262363176902521E+08, 3.524680418861076E+07,
2461659.500000000, A.D. 2027-Sep-11 00:00:00.0000, -4.072933485627317E+07, 3.254616913016171E+08, 3.559820457799114E+07,
2461666.500000000, A.D. 2027-Sep-18 00:00:00.0000, -5.328473579268370E+07, 3.242471650420171E+08, 3.590148857863072E+07,
2461673.500000000, A.D. 2027-Sep-25 00:00:00.0000, -6.576856883888737E+07, 3.225968621828623E+08, 3.615652098235559E+07,
2461680.500000000, A.D. 2027-Oct-02 00:00:00.0000, -7.816458932049666E+07, 3.205155884668975E+08, 3.636324905057074E+07,
2461687.500000000, A.D. 2027-Oct-09 00:00:00.0000, -9.045689691014297E+07, 3.180088060235335E+08, 3.652170087954529E+07,
2461694.500000000, A.D. 2027-Oct-16 00:00:00.0000, -1.026299651477663E+08, 3.150826055880672E+08, 3.663198350353333E+07,
2461701.500000000, A.D. 2027-Oct-23 00:00:00.0000, -1.146686682318626E+08, 3.117436772441949E+08, 3.669428073259756E+07,
2461708.500000000, A.D. 2027-Oct-30 00:00:00.0000, -1.265583046642969E+08, 3.079992805245851E+08, 3.670885076269637E+07,
2461715.500000000, A.D. 2027-Nov-06 00:00:00.0000, -1.382846188930737E+08, 3.038572152223483E+08, 3.667602377986431E+07,
2461722.500000000, A.D. 2027-Nov-13 00:00:00.0000, -1.498338229352606E+08, 2.993257910578723E+08, 3.659619959357494E+07,
2461729.500000000, A.D. 2027-Nov-20 00:00:00.0000, -1.611926150907627E+08, 2.944137942150478E+08, 3.646984487571029E+07,
2461736.500000000, A.D. 2027-Nov-27 00:00:00.0000, -1.723481941729246E+08, 2.891304539048494E+08, 3.629749012151319E+07,
2461743.500000000, A.D. 2027-Dec-04 00:00:00.0000, -1.832882713377768E+08, 2.834854100672437E+08, 3.607972661561590E+07,
2461750.500000000, A.D. 2027-Dec-11 00:00:00.0000, -1.940010801278371E+08, 2.774886814266064E+08, 3.581720339572890E+07,
2461757.500000000, A.D. 2027-Dec-18 00:00:00.0000, -2.044753845354116E+08, 2.711506337235075E+08, 3.551062418092722E+07,
2461764.500000000, A.D. 2027-Dec-25 00:00:00.0000, -2.147004850260945E+08, 2.644819482704324E+08, 3.516074426956783E+07,
2461771.500000000, A.D. 2028-Jan-01 00:00:00.0000, -2.246662225831382E+08, 2.574935909829738E+08, 3.476836742238802E+07,
$$EOE